{
 "generated_at": "2026-07-24T07:31:19Z",
 "sources": [
  {
   "name": "CelesTrak",
   "url": "https://celestrak.org/NORAD/elements/",
   "license": "frei verfügbar; Attribution. Ursprünglich USSPACECOM/Space-Track."
  },
  {
   "name": "GCAT (J. McDowell, planet4589.org)",
   "url": "https://planet4589.org/space/gcat/",
   "license": "CC-BY 4.0"
  }
 ],
 "satellites": [
  {
   "norad": 28376,
   "name": "AURA",
   "intl": "2004-026A",
   "group": "resource",
   "gcat": {
    "class": "C",
    "category": "EOSCI",
    "owner": "GSFC",
    "state": "US"
   },
   "omm": {
    "OBJECT_NAME": "AURA",
    "OBJECT_ID": "2004-026A",
    "EPOCH": "2026-07-23T19:45:11.737728",
    "MEAN_MOTION": 14.61377134,
    "ECCENTRICITY": 0.0001442,
    "INCLINATION": 98.3435,
    "RA_OF_ASC_NODE": 161.5851,
    "ARG_OF_PERICENTER": 93.7182,
    "MEAN_ANOMALY": 266.4183,
    "EPHEMERIS_TYPE": 0,
    "CLASSIFICATION_TYPE": "U",
    "NORAD_CAT_ID": 28376,
    "ELEMENT_SET_NO": 999,
    "REV_AT_EPOCH": 17156,
    "BSTAR": 0.00013646,
    "MEAN_MOTION_DOT": 0.00000627,
    "MEAN_MOTION_DDOT": 0
   }
  },
  {
   "norad": 63772,
   "name": "BIOMASS",
   "intl": "2025-090A",
   "group": "resource",
   "gcat": {
    "class": "C",
    "category": "EOSCI",
    "owner": "ESA",
    "state": "I-ESA"
   },
   "omm": {
    "OBJECT_NAME": "BIOMASS",
    "OBJECT_ID": "2025-090A",
    "EPOCH": "2026-07-23T09:03:24.183072",
    "MEAN_MOTION": 14.67538192,
    "ECCENTRICITY": 0.0001467,
    "INCLINATION": 98.0751,
    "RA_OF_ASC_NODE": 31.1662,
    "ARG_OF_PERICENTER": 87.7384,
    "MEAN_ANOMALY": 272.3989,
    "EPHEMERIS_TYPE": 0,
    "CLASSIFICATION_TYPE": "U",
    "NORAD_CAT_ID": 63772,
    "ELEMENT_SET_NO": 999,
    "REV_AT_EPOCH": 6599,
    "BSTAR": 0.00011721,
    "MEAN_MOTION_DOT": 0.00000617,
    "MEAN_MOTION_DDOT": 0
   }
  },
  {
   "norad": 57693,
   "name": "CAPELLA-11 (ACADIA-1)",
   "intl": "2023-126A",
   "group": "sar",
   "gcat": {
    "class": "B",
    "category": "IMG-R",
    "owner": "CAPSP",
    "state": "US"
   },
   "omm": {
    "OBJECT_NAME": "CAPELLA-11 (ACADIA-1)",
    "OBJECT_ID": "2023-126A",
    "EPOCH": "2026-07-23T19:13:38.456256",
    "MEAN_MOTION": 14.85464038,
    "ECCENTRICITY": 0.0002295,
    "INCLINATION": 53.009,
    "RA_OF_ASC_NODE": 25.8731,
    "ARG_OF_PERICENTER": 129.3408,
    "MEAN_ANOMALY": 230.7775,
    "EPHEMERIS_TYPE": 0,
    "CLASSIFICATION_TYPE": "U",
    "NORAD_CAT_ID": 57693,
    "ELEMENT_SET_NO": 999,
    "REV_AT_EPOCH": 15756,
    "BSTAR": 0.00056069,
    "MEAN_MOTION_DOT": 0.00004653,
    "MEAN_MOTION_DDOT": 0
   }
  },
  {
   "norad": 60419,
   "name": "CAPELLA-13 (ACADIA-3)",
   "intl": "2024-142A",
   "group": "sar",
   "gcat": {
    "class": "B",
    "category": "IMG-R",
    "owner": "CAPSP",
    "state": "US"
   },
   "omm": {
    "OBJECT_NAME": "CAPELLA-13 (ACADIA-3)",
    "OBJECT_ID": "2024-142A",
    "EPOCH": "2026-07-23T04:13:46.958880",
    "MEAN_MOTION": 14.8766649,
    "ECCENTRICITY": 0.00013294,
    "INCLINATION": 53.0038,
    "RA_OF_ASC_NODE": 260.4756,
    "ARG_OF_PERICENTER": 88.5016,
    "MEAN_ANOMALY": 271.6117,
    "EPHEMERIS_TYPE": 0,
    "CLASSIFICATION_TYPE": "U",
    "NORAD_CAT_ID": 60419,
    "ELEMENT_SET_NO": 999,
    "REV_AT_EPOCH": 10576,
    "BSTAR": 0.00029032083,
    "MEAN_MOTION_DOT": 0.00002432,
    "MEAN_MOTION_DDOT": 0
   }
  },
  {
   "norad": 59444,
   "name": "CAPELLA-14 (ACADIA-4)",
   "intl": "2024-066C",
   "group": "sar",
   "gcat": {
    "class": "B",
    "category": "IMG-R",
    "owner": "CAPSP",
    "state": "US"
   },
   "omm": {
    "OBJECT_NAME": "CAPELLA-14 (ACADIA-4)",
    "OBJECT_ID": "2024-066C",
    "EPOCH": "2026-07-23T18:51:51.359904",
    "MEAN_MOTION": 15.06921767,
    "ECCENTRICITY": 0.0001023,
    "INCLINATION": 45.6036,
    "RA_OF_ASC_NODE": 62.8962,
    "ARG_OF_PERICENTER": 209.5821,
    "MEAN_ANOMALY": 150.5005,
    "EPHEMERIS_TYPE": 0,
    "CLASSIFICATION_TYPE": "U",
    "NORAD_CAT_ID": 59444,
    "ELEMENT_SET_NO": 999,
    "REV_AT_EPOCH": 11801,
    "BSTAR": 0.0008169,
    "MEAN_MOTION_DOT": 0.00012168,
    "MEAN_MOTION_DDOT": 0
   }
  },
  {
   "norad": 60544,
   "name": "CAPELLA-15 (ACADIA-5)",
   "intl": "2024-149CE",
   "group": "sar",
   "gcat": {
    "class": "B",
    "category": "IMG-R",
    "owner": "CAPSP",
    "state": "US"
   },
   "omm": {
    "OBJECT_NAME": "CAPELLA-15 (ACADIA-5)",
    "OBJECT_ID": "2024-149CE",
    "EPOCH": "2026-07-22T04:29:48.543360",
    "MEAN_MOTION": 14.92392787,
    "ECCENTRICITY": 0.00027931,
    "INCLINATION": 97.6752,
    "RA_OF_ASC_NODE": 275.2124,
    "ARG_OF_PERICENTER": 309.4682,
    "MEAN_ANOMALY": 50.629,
    "EPHEMERIS_TYPE": 0,
    "CLASSIFICATION_TYPE": "U",
    "NORAD_CAT_ID": 60544,
    "ELEMENT_SET_NO": 999,
    "REV_AT_EPOCH": 10507,
    "BSTAR": 0.00029174654,
    "MEAN_MOTION_DOT": 0.00002932,
    "MEAN_MOTION_DDOT": 0
   }
  },
  {
   "norad": 65318,
   "name": "CAPELLA-16 (ACADIA-6)",
   "intl": "2025-188D",
   "group": "sar",
   "gcat": {
    "class": "B",
    "category": "IMG-R",
    "owner": "CAPSP",
    "state": "US"
   },
   "omm": {
    "OBJECT_NAME": "CAPELLA-16 (ACADIA-6)",
    "OBJECT_ID": "2025-188D",
    "EPOCH": "2026-07-23T15:49:55.024032",
    "MEAN_MOTION": 14.94122591,
    "ECCENTRICITY": 0.0005746,
    "INCLINATION": 97.7366,
    "RA_OF_ASC_NODE": 279.2667,
    "ARG_OF_PERICENTER": 114.9312,
    "MEAN_ANOMALY": 245.2506,
    "EPHEMERIS_TYPE": 0,
    "CLASSIFICATION_TYPE": "U",
    "NORAD_CAT_ID": 65318,
    "ELEMENT_SET_NO": 999,
    "REV_AT_EPOCH": 4936,
    "BSTAR": 0.00056673,
    "MEAN_MOTION_DOT": 0.00006007,
    "MEAN_MOTION_DDOT": 0
   }
  },
  {
   "norad": 64583,
   "name": "CAPELLA-17 (ACADIA-7)",
   "intl": "2025-135BH",
   "group": "sar",
   "gcat": {
    "class": "B",
    "category": "IMG-R",
    "owner": "CAPSP",
    "state": "US"
   },
   "omm": {
    "OBJECT_NAME": "CAPELLA-17 (ACADIA-7)",
    "OBJECT_ID": "2025-135BH",
    "EPOCH": "2026-07-23T18:22:59.206656",
    "MEAN_MOTION": 14.91693646,
    "ECCENTRICITY": 0.0004656,
    "INCLINATION": 97.7705,
    "RA_OF_ASC_NODE": 317.8515,
    "ARG_OF_PERICENTER": 216.5246,
    "MEAN_ANOMALY": 143.5655,
    "EPHEMERIS_TYPE": 0,
    "CLASSIFICATION_TYPE": "U",
    "NORAD_CAT_ID": 64583,
    "ELEMENT_SET_NO": 999,
    "REV_AT_EPOCH": 5930,
    "BSTAR": 0.00057791,
    "MEAN_MOTION_DOT": 0.0000576,
    "MEAN_MOTION_DDOT": 0
   }
  },
  {
   "norad": 67385,
   "name": "CAPELLA-18 (ACADIA-8)",
   "intl": "2026-004Y",
   "group": "sar",
   "gcat": {
    "class": "B",
    "category": "IMG-R",
    "owner": "CAPSP",
    "state": "US"
   },
   "omm": {
    "OBJECT_NAME": "CAPELLA-18 (ACADIA-8)",
    "OBJECT_ID": "2026-004Y",
    "EPOCH": "2026-07-22T22:46:29.546976",
    "MEAN_MOTION": 14.86655189,
    "ECCENTRICITY": 0.00012406,
    "INCLINATION": 97.8003,
    "RA_OF_ASC_NODE": 201.8273,
    "ARG_OF_PERICENTER": 80.3843,
    "MEAN_ANOMALY": 279.7513,
    "EPHEMERIS_TYPE": 0,
    "CLASSIFICATION_TYPE": "U",
    "NORAD_CAT_ID": 67385,
    "ELEMENT_SET_NO": 999,
    "REV_AT_EPOCH": 2859,
    "BSTAR": 0.00046383784,
    "MEAN_MOTION_DOT": 0.00004066,
    "MEAN_MOTION_DDOT": 0
   }
  },
  {
   "norad": 67384,
   "name": "CAPELLA-19 (ACADIA-9)",
   "intl": "2026-004X",
   "group": "sar",
   "gcat": {
    "class": "B",
    "category": "IMG-R",
    "owner": "CAPSP",
    "state": "US"
   },
   "omm": {
    "OBJECT_NAME": "CAPELLA-19 (ACADIA-9)",
    "OBJECT_ID": "2026-004X",
    "EPOCH": "2026-07-23T09:50:28.331232",
    "MEAN_MOTION": 14.86659873,
    "ECCENTRICITY": 0.0001586,
    "INCLINATION": 97.8013,
    "RA_OF_ASC_NODE": 202.1288,
    "ARG_OF_PERICENTER": 95.6164,
    "MEAN_ANOMALY": 264.5233,
    "EPHEMERIS_TYPE": 0,
    "CLASSIFICATION_TYPE": "U",
    "NORAD_CAT_ID": 67384,
    "ELEMENT_SET_NO": 999,
    "REV_AT_EPOCH": 2865,
    "BSTAR": 0.00036284,
    "MEAN_MOTION_DOT": 0.00003169,
    "MEAN_MOTION_DDOT": 0
   }
  }
 ]
}
