AURA                    
1 28376U 04026A   26204.82305252  .00000627  00000+0  13646-3 0  9996
2 28376  98.3435 161.5851 0001442  93.7182 266.4183 14.61377134171565
CAPELLA-11 (ACADIA-1)   
1 57693U 23126A   26204.80113954  .00004653  00000+0  56069-3 0  9995
2 57693  53.0090  25.8731 0002295 129.3408 230.7775 14.85464038157568
CAPELLA-14 (ACADIA-4)   
1 59444U 24066C   26204.78601111  .00012168  00000+0  81690-3 0  9997
2 59444  45.6036  62.8962 0001023 209.5821 150.5005 15.06921767118019
CAPELLA-13 (ACADIA-3)   
1 60419U 24142A   26204.17623795  .00002432  00000+0  29032-3 0  9996
2 60419  53.0038 260.4756 0001329  88.5016 271.6117 14.87666490105769
CAPELLA-15 (ACADIA-5)   
1 60544U 24149CE  26203.18736740  .00002932  00000+0  29175-3 0  9990
2 60544  97.6752 275.2124 0002793 309.4682  50.6290 14.92392787105070
BIOMASS                 
1 63772U 25090A   26204.37736323  .00000617  00000+0  11721-3 0  9997
2 63772  98.0751  31.1662 0001467  87.7384 272.3989 14.67538192 65996
CAPELLA-17 (ACADIA-7)   
1 64583U 25135BH  26204.76596304  .00005760  00000+0  57791-3 0  9995
2 64583  97.7705 317.8515 0004656 216.5246 143.5655 14.91693646 59305
CAPELLA-16 (ACADIA-6)   
1 65318U 25188D   26204.65966463  .00006007  00000+0  56673-3 0  9998
2 65318  97.7366 279.2667 0005746 114.9312 245.2506 14.94122591 49369
CAPELLA-19 (ACADIA-9)   
1 67384U 26004X   26204.41005013  .00003169  00000+0  36284-3 0  9992
2 67384  97.8013 202.1288 0001586  95.6164 264.5233 14.86659873 28655
CAPELLA-18 (ACADIA-8)   
1 67385U 26004Y   26203.94895309  .00004066  00000+0  46384-3 0  9994
2 67385  97.8003 201.8273 0001240  80.3843 279.7513 14.86655189 28595
